[{"OBJECT_NAME":"VIZARD-METEO (RS38S)","OBJECT_ID":"2023-091Z","EPOCH":"2026-03-09T23:01:09.168960","MEAN_MOTION":15.32764799,"ECCENTRICITY":0.00087615,"INCLINATION":97.5192,"RA_OF_ASC_NODE":136.6522,"ARG_OF_PERICENTER":71.7666,"MEAN_ANOMALY":288.4529,"EPHEMERIS_TYPE":0,"CLASSIFICATION_TYPE":"U","NORAD_CAT_ID":57189,"ELEMENT_SET_NO":999,"REV_AT_EPOCH":14947,"BSTAR":0.00066106249,"MEAN_MOTION_DOT":0.00020895,"MEAN_MOTION_DDOT":0},{"OBJECT_NAME":"STARLINK-35452","OBJECT_ID":"2025-236U","EPOCH":"2026-03-09T08:51:25.444800","MEAN_MOTION":15.30188556,"ECCENTRICITY":0.00013357,"INCLINATION":53.159,"RA_OF_ASC_NODE":105.4911,"ARG_OF_PERICENTER":87.3218,"MEAN_ANOMALY":272.7936,"EPHEMERIS_TYPE":0,"CLASSIFICATION_TYPE":"U","NORAD_CAT_ID":66104,"ELEMENT_SET_NO":999,"REV_AT_EPOCH":2289,"BSTAR":0.00034143843,"MEAN_MOTION_DOT":9.763e-5,"MEAN_MOTION_DDOT":0}]
